{"type": "FeatureCollection", "features": [{"type": "Feature", "properties": {"name": "Los Angeles", "cartodb_id": 19, "created_at": "2015-07-04T21:04:58Z", "updated_at": "2015-07-04T21:04:58Z", "GEOID": "06037", "NAME": "Los Angeles County"}, "geometry": {"type": "MultiPolygon", "coordinates": [[[[-118.94485, 34.045657], [-118.940801, 34.074967], [-118.788889, 34.168214], [-118.723374, 34.167861], [-118.668152, 34.168195], [-118.667713, 34.240404], [-118.632495, 34.240426], [-118.632548, 34.263429], [-118.636789, 34.291804], [-118.741904, 34.5058], [-118.815868, 34.655414], [-118.886824, 34.801876], [-118.854576, 34.803027], [-118.854253, 34.817772], [-118.765862, 34.817995], [-118.489589, 34.81785], [-118.440005, 34.818703], [-118.308655, 34.820063], [-118.204107, 34.820159], [-118.114465, 34.821037], [-117.987678, 34.822625], [-117.881132, 34.822517], [-117.738725, 34.823251], [-117.667292, 34.822526], [-117.667848, 34.79072], [-117.667187, 34.767374], [-117.666818, 34.642608], [-117.666772, 34.634743], [-117.667034, 34.558008], [-117.660346, 34.557848], [-117.659757, 34.452769], [-117.646374, 34.28917], [-117.678501, 34.161993], [-117.686799, 34.138122], [-117.704725, 34.093957], [-117.716309, 34.067661], [-117.727189, 34.037411], [-117.730125, 34.021371], [-117.735846, 34.018554], [-117.76769, 34.023506], [-117.767483, 34.004611], [-117.785062, 34.004809], [-117.802539, 33.975551], [-117.793667, 33.968135], [-117.793578, 33.95379], [-117.783287, 33.946411], [-117.85197, 33.946873], [-117.888144, 33.946075], [-117.976498, 33.94605], [-117.976593, 33.90281], [-117.985481, 33.902769], [-117.993996, 33.895412], [-117.994057, 33.888111], [-118.002594, 33.880909], [-118.011398, 33.880913], [-118.011398, 33.873314], [-118.028679, 33.873219], [-118.028581, 33.866246], [-118.037536, 33.862369], [-118.050375, 33.849917], [-118.058918, 33.846121], [-118.058988, 33.835207], [-118.063499, 33.831516], [-118.063162, 33.81961], [-118.072597, 33.815115], [-118.084597, 33.803216], [-118.086738, 33.79609], [-118.099107, 33.776518], [-118.09371, 33.768333], [-118.09197, 33.758472], [-118.112168, 33.747567], [-118.114076, 33.746531], [-118.11483, 33.745949], [-118.108513, 33.752183], [-118.122221, 33.760585], [-118.13163, 33.755512], [-118.14704, 33.757297], [-118.175434, 33.763455], [-118.190981, 33.759621], [-118.192156, 33.75343], [-118.185236, 33.732858], [-118.202414, 33.736262], [-118.206908, 33.750793], [-118.226898, 33.770053], [-118.245622, 33.765703], [-118.250694, 33.770427], [-118.267372, 33.753074], [-118.27378, 33.751318], [-118.27871, 33.738249], [-118.271113, 33.72042], [-118.28457, 33.713827], [-118.282829, 33.709211], [-118.294481, 33.704685], [-118.29844, 33.709897], [-118.351322, 33.727204], [-118.360767, 33.737332], [-118.381878, 33.742257], [-118.398128, 33.736098], [-118.410994, 33.743148], [-118.422383, 33.771279], [-118.428268, 33.774482], [-118.418667, 33.786453], [-118.407018, 33.791834], [-118.407591, 33.797386], [-118.393424, 33.80537], [-118.390543, 33.819335], [-118.390821, 33.837805], [-118.400665, 33.855969], [-118.404016, 33.866287], [-118.425652, 33.909695], [-118.453723, 33.958754], [-118.459496, 33.961], [-118.462352, 33.97134], [-118.478707, 33.990063], [-118.503308, 34.014682], [-118.52621, 34.030757], [-118.54595, 34.038841], [-118.554284, 34.037849], [-118.570083, 34.04158], [-118.584498, 34.037454], [-118.594788, 34.039539], [-118.609858, 34.03639], [-118.623295, 34.037856], [-118.636178, 34.036214], [-118.664981, 34.039061], [-118.678072, 34.035863], [-118.682741, 34.030696], [-118.696648, 34.032187], [-118.706596, 34.029535], [-118.735521, 34.033063], [-118.744618, 34.032278], [-118.756129, 34.025746], [-118.781979, 34.02229], [-118.789874, 34.016934], [-118.794223, 34.007592], [-118.80873, 34.001657], [-118.824248, 34.016109], [-118.841177, 34.028087], [-118.854126, 34.03443], [-118.876864, 34.038181], [-118.915466, 34.041638], [-118.925314, 34.045994], [-118.937077, 34.043216], [-118.94485, 34.045657]]], [[[-118.431066, 33.427431], [-118.420875, 33.427117], [-118.396112, 33.415996], [-118.389148, 33.417699], [-118.382864, 33.410363], [-118.367618, 33.406639], [-118.369406, 33.391058], [-118.349761, 33.371338], [-118.331939, 33.358682], [-118.323853, 33.342979], [-118.317243, 33.343557], [-118.307025, 33.330077], [-118.303449, 33.320546], [-118.304664, 33.308983], [-118.325359, 33.299129], [-118.338311, 33.30304], [-118.355681, 33.314461], [-118.373799, 33.319916], [-118.406448, 33.321103], [-118.423019, 33.317124], [-118.440963, 33.318578], [-118.465521, 33.326134], [-118.48224, 33.344607], [-118.488733, 33.356622], [-118.479463, 33.375854], [-118.478603, 33.386426], [-118.487284, 33.417942], [-118.498404, 33.421507], [-118.506816, 33.427981], [-118.516044, 33.425661], [-118.523136, 33.430775], [-118.532702, 33.428979], [-118.537173, 33.434676], [-118.549777, 33.435932], [-118.5566, 33.432988], [-118.574474, 33.440615], [-118.593876, 33.467166], [-118.579457, 33.475562], [-118.550754, 33.473051], [-118.538396, 33.476301], [-118.522255, 33.461751], [-118.505297, 33.453362], [-118.493646, 33.441144], [-118.477431, 33.448412], [-118.472231, 33.442009], [-118.449287, 33.432651], [-118.442916, 33.428091], [-118.431066, 33.427431]]], [[[-118.550149, 33.003084], [-118.546434, 32.991508], [-118.53935, 32.980358], [-118.520183, 32.963924], [-118.513898, 32.952779], [-118.495998, 32.932822], [-118.485694, 32.923702], [-118.467412, 32.914406], [-118.446908, 32.895333], [-118.408382, 32.867711], [-118.396767, 32.856827], [-118.370091, 32.839368], [-118.350628, 32.818322], [-118.370968, 32.819814], [-118.380699, 32.824674], [-118.393677, 32.824403], [-118.40142, 32.820445], [-118.403721, 32.811949], [-118.428401, 32.803855], [-118.43294, 32.815053], [-118.449547, 32.819327], [-118.460919, 32.830979], [-118.469591, 32.834328], [-118.475025, 32.841394], [-118.48894, 32.844105], [-118.499575, 32.851768], [-118.502578, 32.863243], [-118.508342, 32.870959], [-118.506624, 32.876764], [-118.516719, 32.883165], [-118.540418, 32.916072], [-118.549437, 32.93293], [-118.551182, 32.94513], [-118.558535, 32.956269], [-118.573552, 32.96916], [-118.5766, 32.986269], [-118.582225, 32.9936], [-118.588197, 33.010423], [-118.596063, 33.015382], [-118.60654, 33.014669], [-118.605256, 33.030095], [-118.592547, 33.034995], [-118.585941, 33.028567], [-118.57509, 33.033808], [-118.563552, 33.023962], [-118.564759, 33.019055], [-118.559264, 33.005998], [-118.550149, 33.003084]]], [[[-118.240972, 33.73369], [-118.23705, 33.727758], [-118.251135, 33.723575], [-118.258224, 33.728921], [-118.240972, 33.73369]]], [[[-118.269513, 33.726392], [-118.274749, 33.740682], [-118.269994, 33.748604], [-118.257797, 33.759537], [-118.225388, 33.768414], [-118.224776, 33.756799], [-118.244328, 33.751019], [-118.254062, 33.745574], [-118.251255, 33.737615], [-118.269513, 33.726392]]]]}}, {"type": "Feature", "properties": {"name": "Orange", "cartodb_id": 30, "created_at": "2015-07-04T21:04:58Z", "updated_at": "2015-07-04T21:04:58Z", "GEOID": "06059", "NAME": "Orange County"}, "geometry": {"type": "MultiPolygon", "coordinates": [[[[-118.099107, 33.776518], [-118.086738, 33.79609], [-118.084597, 33.803216], [-118.072597, 33.815115], [-118.063162, 33.81961], [-118.063499, 33.831516], [-118.058988, 33.835207], [-118.058918, 33.846121], [-118.050375, 33.849917], [-118.037536, 33.862369], [-118.028581, 33.866246], [-118.028679, 33.873219], [-118.011398, 33.873314], [-118.011398, 33.880913], [-118.002594, 33.880909], [-117.994057, 33.888111], [-117.993996, 33.895412], [-117.985481, 33.902769], [-117.976593, 33.90281], [-117.976498, 33.94605], [-117.888144, 33.946075], [-117.85197, 33.946873], [-117.783287, 33.946411], [-117.748687, 33.921814], [-117.680289, 33.877412], [-117.676988, 33.873711], [-117.675053, 33.868725], [-117.674282, 33.857956], [-117.662117, 33.857499], [-117.607639, 33.797731], [-117.580789, 33.769477], [-117.569069, 33.764574], [-117.536448, 33.757665], [-117.533999, 33.710355], [-117.497118, 33.705506], [-117.474573, 33.703811], [-117.457981, 33.690292], [-117.412987, 33.659045], [-117.496701, 33.552615], [-117.51021, 33.533999], [-117.509909, 33.520546], [-117.503181, 33.520405], [-117.503756, 33.508945], [-117.509725, 33.509062], [-117.509714, 33.500026], [-117.509582, 33.471662], [-117.538429, 33.455643], [-117.557226, 33.451194], [-117.57848, 33.453927], [-117.595944, 33.386416], [-117.607217, 33.405403], [-117.633156, 33.431635], [-117.651994, 33.445543], [-117.681839, 33.461617], [-117.692781, 33.460065], [-117.715053, 33.464422], [-117.725848, 33.481919], [-117.738873, 33.490615], [-117.73903, 33.494897], [-117.765957, 33.523339], [-117.786183, 33.5423], [-117.819969, 33.553738], [-117.824326, 33.56183], [-117.833355, 33.56597], [-117.841028, 33.574208], [-117.864153, 33.584844], [-117.888546, 33.609787], [-117.900092, 33.609875], [-117.926469, 33.620542], [-117.923669, 33.611557], [-117.927714, 33.605903], [-117.940701, 33.620312], [-117.957001, 33.627416], [-118.004899, 33.656511], [-118.038445, 33.684139], [-118.053413, 33.700428], [-118.084923, 33.72723], [-118.096345, 33.738333], [-118.10015, 33.734986], [-118.115795, 33.740704], [-118.112168, 33.747567], [-118.09197, 33.758472], [-118.09371, 33.768333], [-118.099107, 33.776518]]], [[[-118.119423, 33.737606], [-118.119336, 33.738149], [-118.11483, 33.745949], [-118.114076, 33.746531], [-118.119423, 33.737606]]]]}}]}